[{"OBJECT_NAME":"SHARJAHSAT-1","OBJECT_ID":"2023-001CZ","EPOCH":"2026-03-09T23:14:03.954048","MEAN_MOTION":15.45313448,"ECCENTRICITY":0.00077056,"INCLINATION":97.3283,"RA_OF_ASC_NODE":136.581,"ARG_OF_PERICENTER":104.7034,"MEAN_ANOMALY":255.5069,"EPHEMERIS_TYPE":0,"CLASSIFICATION_TYPE":"U","NORAD_CAT_ID":55104,"ELEMENT_SET_NO":999,"REV_AT_EPOCH":17715,"BSTAR":0.00050352422,"MEAN_MOTION_DOT":0.00023971,"MEAN_MOTION_DDOT":0},{"OBJECT_NAME":"STARLINK-30440","OBJECT_ID":"2023-147L","EPOCH":"2026-03-09T22:00:01.999584","MEAN_MOTION":15.22871623,"ECCENTRICITY":0.00018121,"INCLINATION":43.0002,"RA_OF_ASC_NODE":324.1324,"ARG_OF_PERICENTER":277.8781,"MEAN_ANOMALY":320.8166,"EPHEMERIS_TYPE":0,"CLASSIFICATION_TYPE":"U","NORAD_CAT_ID":57923,"ELEMENT_SET_NO":999,"REV_AT_EPOCH":577,"BSTAR":0.047292502,"MEAN_MOTION_DOT":0.01234313,"MEAN_MOTION_DDOT":0}]
